COMMENT,ORIGINATOR,NORAD_CAT_ID,OBJECT_NAME,OBJECT_TYPE,CLASSIFICATION_TYPE,INTLDES,EPOCH,EPOCH_MICROSECONDS,MEAN_MOTION,ECCENTRICITY,INCLINATION,RA_OF_ASC_NODE,ARG_OF_PERICENTER,MEAN_ANOMALY,EPHEMERIS_TYPE,ELEMENT_SET_NO,REV_AT_EPOCH,BSTAR,MEAN_MOTION_DOT,MEAN_MOTION_DDOT,FILE,TLE_LINE0,TLE_LINE1,TLE_LINE2,OBJECT_ID,OBJECT_NUMBER,SEMIMAJOR_AXIS,PERIOD,APOGEE,PERIGEE,DECAYED
"GENERATED VIA SPACETRACK.ORG API","18 SPCS","55101","SPACEBEE-159","PAYLOAD","U","23001CW","2024-04-27 03:38:46","485024","15.44574172","0.0008218","97.423","184.1727","322","38.0668","0","999","7325","0.0023434","0.0011033","0","4300020","0 SPACEBEE-159","1 55101U 23001CW  24118.15192691  .00110330  00000-0  23434-2 0  9994","2 55101  97.4230 184.1727 0008218 322.0000  38.0668 15.44574172 73253","2023-001CW","55101","6810.767","93.230","438.229","427.034","0"
"GENERATED VIA SPACETRACK.ORG API","18 SPCS","55101","SPACEBEE-159","PAYLOAD","U","23001CW","2024-04-27 03:38:46","485024","15.44574172","0.0008218","97.423","184.1727","322","38.0668","0","999","7325","0.0023434","0.0011033","0","4300408","0 SPACEBEE-159","1 55101U 23001CW  24118.15192691  .00110330  00000-0  23434-2 0  9994","2 55101  97.4230 184.1727 0008218 322.0000  38.0668 15.44574172 73253","2023-001CW","55101","6810.767","93.230","438.229","427.034","0"
"GENERATED VIA SPACETRACK.ORG API","18 SPCS","55101","SPACEBEE-159","PAYLOAD","U","23001CW","2024-04-27 17:38:21","397632","15.4468565","0.0008337","97.4229","184.7692","319.4682","40.5945","0","999","7334","0.0018732","0.00088263","0","4300734","0 SPACEBEE-159","1 55101U 23001CW  24118.73496988  .00088263  00000-0  18732-2 0  9998","2 55101  97.4229 184.7692 0008337 319.4682  40.5945 15.44685650 73346","2023-001CW","55101","6810.439","93.223","437.982","426.626","0"
"GENERATED VIA SPACETRACK.ORG API","18 SPCS","55101","SPACEBEE-159","PAYLOAD","U","23001CW","2024-04-27 17:38:21","397632","15.4468565","0.0008337","97.4229","184.7692","319.4682","40.5945","0","999","7334","0.0018732","0.00088263","0","4300757","0 SPACEBEE-159","1 55101U 23001CW  24118.73496988  .00088263  00000-0  18732-2 0  9998","2 55101  97.4229 184.7692 0008337 319.4682  40.5945 15.44685650 73346","2023-001CW","55101","6810.439","93.223","437.982","426.626","0"
"GENERATED VIA SPACETRACK.ORG API","18 SPCS","55101","SPACEBEE-159","PAYLOAD","U","23001CW","2024-04-28 10:44:25","929312","15.44814617","0.0008276","97.4232","185.4972","316.333","43.7262","0","999","7345","0.0020457","0.00096926","0","4301411","0 SPACEBEE-159","1 55101U 23001CW  24119.44752233  .00096926  00000-0  20457-2 0  9997","2 55101  97.4232 185.4972 0008276 316.3330  43.7262 15.44814617 73453","2023-001CW","55101","6810.060","93.215","437.561","426.289","0"
"GENERATED VIA SPACETRACK.ORG API","18 SPCS","55101","SPACEBEE-159","PAYLOAD","U","23001CW","2024-04-28 16:57:31","968864","15.44844976","0.0008284","97.4229","185.762","315.3469","44.7111","0","999","7349","0.001482","0.00070025","0","4301761","0 SPACEBEE-159","1 55101U 23001CW  24119.70662001  .00070025  00000-0  14820-2 0  9998","2 55101  97.4229 185.7620 0008284 315.3469  44.7111 15.44844976 73492","2023-001CW","55101","6809.971","93.213","437.477","426.194","0"
"GENERATED VIA SPACETRACK.ORG API","18 SPCS","55101","SPACEBEE-159","PAYLOAD","U","23001CW","2024-04-29 03:50:26","160000","15.44908236","0.0008258","97.4229","186.225","312.9966","47.0589","0","999","7356","0.0012004","0.00056728","0","4302030","0 SPACEBEE-159","1 55101U 23001CW  24120.16002500  .00056728  00000-0  12004-2 0  9998","2 55101  97.4229 186.2250 0008258 312.9966  47.0589 15.44908236 73566","2023-001CW","55101","6809.785","93.209","437.273","426.026","0"
"GENERATED VIA SPACETRACK.ORG API","18 SPCS","55101","SPACEBEE-159","PAYLOAD","U","23001CW","2024-04-29 03:50:26","160000","15.44908236","0.0008258","97.4229","186.225","312.9966","47.0589","0","999","7356","0.0012004","0.00056728","0","4302365","0 SPACEBEE-159","1 55101U 23001CW  24120.16002500  .00056728  00000-0  12004-2 0  9998","2 55101  97.4229 186.2250 0008258 312.9966  47.0589 15.44908236 73566","2023-001CW","55101","6809.785","93.209","437.273","426.026","0"
"GENERATED VIA SPACETRACK.ORG API","18 SPCS","55101","SPACEBEE-159","PAYLOAD","U","23001CW","2024-04-29 22:29:38","488992","15.45005008","0.0008317","97.4227","187.0196","309.5455","50.5058","0","999","7368","0.0011988","0.00056841","0","4302696","0 SPACEBEE-159","1 55101U 23001CW  24120.93725103  .00056841  00000-0  11988-2 0  9990","2 55101  97.4227 187.0196 0008317 309.5455  50.5058 15.45005008 73682","2023-001CW","55101","6809.500","93.204","437.029","425.702","0"
"GENERATED VIA SPACETRACK.ORG API","18 SPCS","55101","SPACEBEE-159","PAYLOAD","U","23001CW","2024-04-30 03:09:25","913952","15.45031674","0.0008308","97.4227","187.2185","308.5028","51.5474","0","999","7371","0.0012358","0.00058664","0","4303011","0 SPACEBEE-159","1 55101U 23001CW  24121.13154993  .00058664  00000-0  12358-2 0  9993","2 55101  97.4227 187.2185 0008308 308.5028  51.5474 15.45031674 73712","2023-001CW","55101","6809.422","93.202","436.944","425.630","0"
"GENERATED VIA SPACETRACK.ORG API","18 SPCS","55101","SPACEBEE-159","PAYLOAD","U","23001CW","2024-04-30 10:55:44","424192","15.45066045","0.0008349","97.4227","187.5499","307.6288","52.4202","0","999","7376","0.0012911","0.00061387","0","4303298","0 SPACEBEE-159","1 55101U 23001CW  24121.45537528  .00061387  00000-0  12911-2 0  9998","2 55101  97.4227 187.5499 0008349 307.6288  52.4202 15.45066045 73760","2023-001CW","55101","6809.321","93.200","436.871","425.501","0"
"GENERATED VIA SPACETRACK.ORG API","18 SPCS","55101","SPACEBEE-159","PAYLOAD","U","23001CW","2024-04-30 21:48:33","279264","15.45121655","0.000841","97.4226","188.0129","305.3223","54.7238","0","999","7383","0.0015191","0.00072484","0","4303571","0 SPACEBEE-159","1 55101U 23001CW  24121.90871851  .00072484  00000-0  15191-2 0  9991","2 55101  97.4226 188.0129 0008410 305.3223  54.7238 15.45121655 73839","2023-001CW","55101","6809.158","93.197","436.749","425.296","0"
"GENERATED VIA SPACETRACK.ORG API","18 SPCS","55101","SPACEBEE-159","PAYLOAD","U","23001CW","2024-05-01 04:01:34","807008","15.45161391","0.0008377","97.4227","188.2778","304.0219","56.0234","0","999","7387","0.0016142","0.00077176","0","4303860","0 SPACEBEE-159","1 55101U 23001CW  24122.16776397  .00077176  00000-0  16142-2 0  9999","2 55101  97.4227 188.2778 0008377 304.0219  56.0234 15.45161391 73871","2023-001CW","55101","6809.041","93.194","436.610","425.202","0"
"GENERATED VIA SPACETRACK.ORG API","18 SPCS","55101","SPACEBEE-159","PAYLOAD","U","23001CW","2024-05-01 10:14:35","785248","15.451951","0.0008439","97.4227","188.543","303.1592","56.8847","0","999","7391","0.0017041","0.00081621","0","4304190","0 SPACEBEE-159","1 55101U 23001CW  24122.42680307  .00081621  00000-0  17041-2 0  9992","2 55101  97.4227 188.5430 0008439 303.1592  56.8847 15.45195100 73910","2023-001CW","55101","6808.942","93.192","436.553","425.061","0"
"GENERATED VIA SPACETRACK.ORG API","18 SPCS","55101","SPACEBEE-159","PAYLOAD","U","23001CW","2024-05-01 22:40:36","404256","15.45250983","0.0008473","97.4226","189.0723","300.7368","59.3046","0","999","7399","0.0013139","0.00062881","0","4304452","0 SPACEBEE-159","1 55101U 23001CW  24122.94486579  .00062881  00000-0  13139-2 0  9995","2 55101  97.4226 189.0723 0008473 300.7368  59.3046 15.45250983 73990","2023-001CW","55101","6808.778","93.189","436.412","424.874","0"
"GENERATED VIA SPACETRACK.ORG API","18 SPCS","55101","SPACEBEE-159","PAYLOAD","U","23001CW","2024-05-02 03:20:21","186240","15.45278888","0.0008477","97.4227","189.2709","299.8329","60.2077","0","999","7402","0.001437","0.00068899","0","4304801","0 SPACEBEE-159","1 55101U 23001CW  24123.13913410  .00068899  00000-0  14370-2 0  9999","2 55101  97.4227 189.2709 0008477 299.8329  60.2077 15.45278888 74020","2023-001CW","55101","6808.696","93.187","436.332","424.789","0"
"GENERATED VIA SPACETRACK.ORG API","18 SPCS","55101","SPACEBEE-159","PAYLOAD","U","23001CW","2024-05-02 03:20:21","186240","15.45278888","0.0008477","97.4227","189.2709","299.8329","60.2077","0","999","7402","0.001437","0.00068899","0","4305180","0 SPACEBEE-159","1 55101U 23001CW  24123.13913410  .00068899  00000-0  14370-2 0  9999","2 55101  97.4227 189.2709 0008477 299.8329  60.2077 15.45278888 74020","2023-001CW","55101","6808.696","93.187","436.332","424.789","0"
"GENERATED VIA SPACETRACK.ORG API","18 SPCS","55101","SPACEBEE-159","PAYLOAD","U","23001CW","2024-05-03 04:12:14","966208","15.45435239","0.0008522","97.4233","190.3305","295.3422","64.6944","0","999","7418","0.001258","0.00060564","0","4305774","0 SPACEBEE-159","1 55101U 23001CW  24124.17517322  .00060564  00000-0  12580-2 0  9998","2 55101  97.4233 190.3305 0008522 295.3422  64.6944 15.45435239 74181","2023-001CW","55101","6808.237","93.178","435.903","424.300","0"
"GENERATED VIA SPACETRACK.ORG API","18 SPCS","55101","SPACEBEE-159","PAYLOAD","U","23001CW","2024-05-03 10:25:11","869824","15.4547454","0.0008507","97.4232","190.5958","294.6592","65.3771","0","999","7422","0.0013771","0.00066445","0","4306126","0 SPACEBEE-159","1 55101U 23001CW  24124.43416516  .00066445  00000-0  13771-2 0  9997","2 55101  97.4232 190.5958 0008507 294.6592  65.3771 15.45474540 74228","2023-001CW","55101","6808.121","93.175","435.778","424.194","0"
"GENERATED VIA SPACETRACK.ORG API","18 SPCS","55101","SPACEBEE-159","PAYLOAD","U","23001CW","2024-05-03 18:11:22","376832","15.4550725","0.0008574","97.4232","190.9268","293.2131","66.8214","0","999","7427","0.0010207","0.00049173","0","4306422","0 SPACEBEE-159","1 55101U 23001CW  24124.75789788  .00049173  00000-0  10207-2 0  9996","2 55101  97.4232 190.9268 0008574 293.2131  66.8214 15.45507250 74272","2023-001CW","55101","6808.025","93.173","435.727","424.053","0"
